[
  {
    "OBJECT_NAME": "STARLINK-4039",
    "OBJECT_ID": "2022-053AD",
    "EPOCH": "2023-02-11T18:17:06.648000",
    "MEAN_MOTION": 15.09033195,
    "ECCENTRICITY": 0.000105,
    "INCLINATION": 53.2164,
    "RA_OF_ASC_NODE": 140.6543,
    "ARG_OF_PERICENTER": 106.4841,
    "MEAN_ANOMALY": 253.6267,
    "EPHEMERIS_TYPE": 0,
    "CLASSIFICATION_TYPE": "U",
    "NORAD_CAT_ID": 52683,
    "ELEMENT_SET_NO": 999,
    "REV_AT_EPOCH": 4176,
    "BSTAR": 0.0037104,
    "MEAN_MOTION_DOT": 0.00059577,
    "MEAN_MOTION_DDOT": 0
  },
  {
    "OBJECT_NAME": "STARLINK-4014",
    "OBJECT_ID": "2022-053AE",
    "EPOCH": "2023-02-11T23:24:37.891584",
    "MEAN_MOTION": 15.08846344,
    "ECCENTRICITY": 0.0001666,
    "INCLINATION": 53.2152,
    "RA_OF_ASC_NODE": 139.69,
    "ARG_OF_PERICENTER": 89.5915,
    "MEAN_ANOMALY": 270.5268,
    "EPHEMERIS_TYPE": 0,
    "CLASSIFICATION_TYPE": "U",
    "NORAD_CAT_ID": 52684,
    "ELEMENT_SET_NO": 999,
    "REV_AT_EPOCH": 4141,
    "BSTAR": 0.0026012,
    "MEAN_MOTION_DOT": 0.00041361,
    "MEAN_MOTION_DDOT": 0
  },
  {
    "OBJECT_NAME": "STARLINK-4029",
    "OBJECT_ID": "2022-053AF",
    "EPOCH": "2023-02-11T22:52:48.384192",
    "MEAN_MOTION": 15.08827316,
    "ECCENTRICITY": 0.0003126,
    "INCLINATION": 53.2172,
    "RA_OF_ASC_NODE": 139.792,
    "ARG_OF_PERICENTER": 33.4993,
    "MEAN_ANOMALY": 326.6197,
    "EPHEMERIS_TYPE": 0,
    "CLASSIFICATION_TYPE": "U",
    "NORAD_CAT_ID": 52685,
    "ELEMENT_SET_NO": 999,
    "REV_AT_EPOCH": 4140,
    "BSTAR": 0.00036261,
    "MEAN_MOTION_DOT": 5.485e-5,
    "MEAN_MOTION_DDOT": 0
  },
  {
    "OBJECT_NAME": "STARLINK-4005",
    "OBJECT_ID": "2022-053AG",
    "EPOCH": "2023-02-11T23:08:41.627616",
    "MEAN_MOTION": 15.08836395,
    "ECCENTRICITY": 8.86e-5,
    "INCLINATION": 53.2156,
    "RA_OF_ASC_NODE": 139.7425,
    "ARG_OF_PERICENTER": 185.2657,
    "MEAN_ANOMALY": 174.8326,
    "EPHEMERIS_TYPE": 0,
    "CLASSIFICATION_TYPE": "U",
    "NORAD_CAT_ID": 52686,
    "ELEMENT_SET_NO": 999,
    "REV_AT_EPOCH": 4140,
    "BSTAR": 0.0015425,
    "MEAN_MOTION_DOT": 0.00024344,
    "MEAN_MOTION_DDOT": 0
  },
  {
    "OBJECT_NAME": "STARLINK-3981",
    "OBJECT_ID": "2022-053AH",
    "EPOCH": "2023-02-12T01:58:17.506848",
    "MEAN_MOTION": 15.08821685,
    "ECCENTRICITY": 9.47e-5,
    "INCLINATION": 53.2161,
    "RA_OF_ASC_NODE": 139.2123,
    "ARG_OF_PERICENTER": 114.8643,
    "MEAN_ANOMALY": 245.2448,
    "EPHEMERIS_TYPE": 0,
    "CLASSIFICATION_TYPE": "U",
    "NORAD_CAT_ID": 52687,
    "ELEMENT_SET_NO": 999,
    "REV_AT_EPOCH": 4142,
    "BSTAR": 1.0566e-5,
    "MEAN_MOTION_DOT": -1.2e-6,
    "MEAN_MOTION_DDOT": 0
  },
  {
    "OBJECT_NAME": "STARLINK-4032",
    "OBJECT_ID": "2022-053AJ",
    "EPOCH": "2023-02-11T22:59:07.464192",
    "MEAN_MOTION": 15.09007201,
    "ECCENTRICITY": 0.0001471,
    "INCLINATION": 53.2185,
    "RA_OF_ASC_NODE": 139.7715,
    "ARG_OF_PERICENTER": 79.9693,
    "MEAN_ANOMALY": 280.1465,
    "EPHEMERIS_TYPE": 0,
    "CLASSIFICATION_TYPE": "U",
    "NORAD_CAT_ID": 52688,
    "ELEMENT_SET_NO": 999,
    "REV_AT_EPOCH": 4140,
    "BSTAR": 0.00089483,
    "MEAN_MOTION_DOT": 0.00014047,
    "MEAN_MOTION_DDOT": 0
  },
  {
    "OBJECT_NAME": "STARLINK-4078",
    "OBJECT_ID": "2022-053AK",
    "EPOCH": "2023-02-11T12:59:16.829664",
    "MEAN_MOTION": 15.0883025,
    "ECCENTRICITY": 0.0001266,
    "INCLINATION": 53.2137,
    "RA_OF_ASC_NODE": 141.6476,
    "ARG_OF_PERICENTER": 113.0672,
    "MEAN_ANOMALY": 247.0454,
    "EPHEMERIS_TYPE": 0,
    "CLASSIFICATION_TYPE": "U",
    "NORAD_CAT_ID": 52689,
    "ELEMENT_SET_NO": 999,
    "REV_AT_EPOCH": 4174,
    "BSTAR": -7.6735e-5,
    "MEAN_MOTION_DOT": -1.509e-5,
    "MEAN_MOTION_DDOT": 0
  },
  {
    "OBJECT_NAME": "STARLINK-4035",
    "OBJECT_ID": "2022-053AL",
    "EPOCH": "2023-02-11T22:58:05.857536",
    "MEAN_MOTION": 15.08853354,
    "ECCENTRICITY": 0.000114,
    "INCLINATION": 53.2143,
    "RA_OF_ASC_NODE": 139.7698,
    "ARG_OF_PERICENTER": 96.5465,
    "MEAN_ANOMALY": 263.5657,
    "EPHEMERIS_TYPE": 0,
    "CLASSIFICATION_TYPE": "U",
    "NORAD_CAT_ID": 52690,
    "ELEMENT_SET_NO": 999,
    "REV_AT_EPOCH": 4140,
    "BSTAR": 0.0014113,
    "MEAN_MOTION_DOT": 0.00022252,
    "MEAN_MOTION_DDOT": 0
  },
  {
    "OBJECT_NAME": "STARLINK-3945",
    "OBJECT_ID": "2022-053AM",
    "EPOCH": "2023-02-11T16:04:44.891328",
    "MEAN_MOTION": 15.08795938,
    "ECCENTRICITY": 0.0001352,
    "INCLINATION": 53.2159,
    "RA_OF_ASC_NODE": 141.0713,
    "ARG_OF_PERICENTER": 93.9397,
    "MEAN_ANOMALY": 266.175,
    "EPHEMERIS_TYPE": 0,
    "CLASSIFICATION_TYPE": "U",
    "NORAD_CAT_ID": 52691,
    "ELEMENT_SET_NO": 999,
    "REV_AT_EPOCH": 4176,
    "BSTAR": 0.00087242,
    "MEAN_MOTION_DOT": 0.00013607,
    "MEAN_MOTION_DDOT": 0
  },
  {
    "OBJECT_NAME": "STARLINK-3993",
    "OBJECT_ID": "2022-053AN",
    "EPOCH": "2023-02-11T16:20:39.501600",
    "MEAN_MOTION": 15.08842909,
    "ECCENTRICITY": 0.0001652,
    "INCLINATION": 53.216,
    "RA_OF_ASC_NODE": 141.0199,
    "ARG_OF_PERICENTER": 78.5857,
    "MEAN_ANOMALY": 281.5321,
    "EPHEMERIS_TYPE": 0,
    "CLASSIFICATION_TYPE": "U",
    "NORAD_CAT_ID": 52692,
    "ELEMENT_SET_NO": 999,
    "REV_AT_EPOCH": 4176,
    "BSTAR": 7.1012e-5,
    "MEAN_MOTION_DOT": 8.42e-6,
    "MEAN_MOTION_DDOT": 0
  },
  {
    "OBJECT_NAME": "STARLINK-3946",
    "OBJECT_ID": "2022-053AP",
    "EPOCH": "2023-02-12T03:01:53.914944",
    "MEAN_MOTION": 15.08807216,
    "ECCENTRICITY": 0.0001445,
    "INCLINATION": 53.2157,
    "RA_OF_ASC_NODE": 139.0235,
    "ARG_OF_PERICENTER": 92.395,
    "MEAN_ANOMALY": 267.7208,
    "EPHEMERIS_TYPE": 0,
    "CLASSIFICATION_TYPE": "U",
    "NORAD_CAT_ID": 52693,
    "ELEMENT_SET_NO": 999,
    "REV_AT_EPOCH": 4143,
    "BSTAR": -8.5404e-5,
    "MEAN_MOTION_DOT": -1.646e-5,
    "MEAN_MOTION_DDOT": 0
  },
  {
    "OBJECT_NAME": "STARLINK-4072",
    "OBJECT_ID": "2022-053AQ",
    "EPOCH": "2023-02-11T11:29:12.032736",
    "MEAN_MOTION": 15.0882315,
    "ECCENTRICITY": 0.0001426,
    "INCLINATION": 53.2139,
    "RA_OF_ASC_NODE": 141.923,
    "ARG_OF_PERICENTER": 87.2116,
    "MEAN_ANOMALY": 272.904,
    "EPHEMERIS_TYPE": 0,
    "CLASSIFICATION_TYPE": "U",
    "NORAD_CAT_ID": 52694,
    "ELEMENT_SET_NO": 999,
    "REV_AT_EPOCH": 4173,
    "BSTAR": -0.00037111,
    "MEAN_MOTION_DOT": -6.187e-5,
    "MEAN_MOTION_DDOT": 0
  },
  {
    "OBJECT_NAME": "STARLINK-4041",
    "OBJECT_ID": "2022-053AR",
    "EPOCH": "2023-02-11T17:38:13.112736",
    "MEAN_MOTION": 15.08865516,
    "ECCENTRICITY": 0.0001282,
    "INCLINATION": 53.2128,
    "RA_OF_ASC_NODE": 145.7799,
    "ARG_OF_PERICENTER": 69.1489,
    "MEAN_ANOMALY": 290.964,
    "EPHEMERIS_TYPE": 0,
    "CLASSIFICATION_TYPE": "U",
    "NORAD_CAT_ID": 52695,
    "ELEMENT_SET_NO": 999,
    "REV_AT_EPOCH": 4171,
    "BSTAR": 0.0030829,
    "MEAN_MOTION_DOT": 0.00049153,
    "MEAN_MOTION_DDOT": 0
  }
]
