STARLINK-4039           
1 52683U 22053AD  23042.76188250  .00059577  00000+0  37104-2 0  9993
2 52683  53.2164 140.6543 0001050 106.4841 253.6267 15.09033195 41765
STARLINK-4014           
1 52684U 22053AE  23042.97543856  .00041361  00000+0  26012-2 0  9992
2 52684  53.2152 139.6900 0001666  89.5915 270.5268 15.08846344 41412
STARLINK-4029           
1 52685U 22053AF  23042.95333778  .00005485  00000+0  36261-3 0  9996
2 52685  53.2172 139.7920 0003126  33.4993 326.6197 15.08827316 41406
STARLINK-4005           
1 52686U 22053AG  23042.96437069  .00024344  00000+0  15425-2 0  9999
2 52686  53.2156 139.7425 0000886 185.2657 174.8326 15.08836395 41406
STARLINK-3981           
1 52687U 22053AH  23043.08214707 -.00000120  00000+0  10566-4 0  9996
2 52687  53.2161 139.2123 0000947 114.8643 245.2448 15.08821685 41420
STARLINK-4032           
1 52688U 22053AJ  23042.95772528  .00014047  00000+0  89483-3 0  9997
2 52688  53.2185 139.7715 0001471  79.9693 280.1465 15.09007201 41404
STARLINK-4078           
1 52689U 22053AK  23042.54116701 -.00001509  00000+0 -76735-4 0  9996
2 52689  53.2137 141.6476 0001266 113.0672 247.0454 15.08830250 41741
STARLINK-4035           
1 52690U 22053AL  23042.95701224  .00022252  00000+0  14113-2 0  9999
2 52690  53.2143 139.7698 0001140  96.5465 263.5657 15.08853354 41401
STARLINK-3945           
1 52691U 22053AM  23042.66996402  .00013607  00000+0  87242-3 0  9990
2 52691  53.2159 141.0713 0001352  93.9397 266.1750 15.08795938 41768
STARLINK-3993           
1 52692U 22053AN  23042.68101275  .00000842  00000+0  71012-4 0  9995
2 52692  53.2160 141.0199 0001652  78.5857 281.5321 15.08842909 41768
STARLINK-3946           
1 52693U 22053AP  23043.12631846 -.00001646  00000+0 -85404-4 0  9993
2 52693  53.2157 139.0235 0001445  92.3950 267.7208 15.08807216 41437
STARLINK-4072           
1 52694U 22053AQ  23042.47861149 -.00006187  00000+0 -37111-3 0  9998
2 52694  53.2139 141.9230 0001426  87.2116 272.9040 15.08823150 41731
STARLINK-4041           
1 52695U 22053AR  23042.73487399  .00049153  00000+0  30829-2 0  9995
2 52695  53.2128 145.7799 0001282  69.1489 290.9640 15.08865516 41710
